ONEWEB-0317             
1 49103U 21075AE  23273.19629410 -.00000343  00000+0 -98786-3 0  9993
2 49103  87.9073 187.6944 0001922  66.4271 293.7059 13.12443954105201
ONEWEB-0318             
1 49104U 21075AF  23273.43738418  .00000061  00000+0  12188-3 0  9997
2 49104  87.9225 172.5284 0001584  86.5573 273.5740 13.18686983107597
ONEWEB-0319             
1 49105U 21075AG  23273.51155045  .00000124  00000+0  28649-3 0  9995
2 49105  87.9250 202.7362 0001303  90.4130 269.7151 13.17647925104133
ONEWEB-0323             
1 49106U 21075AH  23273.18676844 -.00000228  00000+0 -66871-3 0  9990
2 49106  87.9074 187.6847 0001623  76.1210 284.0099 13.12443920104564
ONEWEB-0329             
1 49107U 21075AJ  23273.21413184  .00000064  00000+0  13138-3 0  9995
2 49107  87.9253 202.7979 0001652  74.1723 285.9590 13.17647465103085
ONEWEB-0330             
1 49108U 21075AK  23273.21624161 -.00000283  00000+0 -76260-3 0  9995
2 49108  87.9242 202.8107 0001663  68.1503 291.9805 13.17648048103128
ONEWEB-0292             
1 49186U 21083A   23273.16944078 -.00000225  00000+0 -65219-3 0  9994
2 49186  87.9060 157.4253 0001725  78.3641 281.7682 13.13472077100832
ONEWEB-0303             
1 49187U 21083B   23273.28140858  .00000065  00000+0  13317-3 0  9994
2 49187  87.9225 172.5621 0001591  81.9009 278.2303 13.18687012100666
